{
  "type": "FeatureCollection",
  "features": [
    {
      "type": "Feature",
      "properties": {
        "norad_id": 38867,
        "name": "INTELSAT 23 (IS-23)",
        "group": "intelsat",
        "lat": 0.029832864414118813,
        "lon": 156.3344979641522,
        "alt_km": 35792.10324750876,
        "timestamp": "2025-12-24T07:45:05.866571+00:00",
        "meta_object_name": "INTELSAT 23 (IS-23)",
        "meta_object_id": "2012-057A",
        "meta_epoch": "2025-12-23T19:43:44.032224",
        "meta_mean_motion": 1.00264604,
        "meta_eccentricity": 0.00010732,
        "meta_inclination": 0.0166,
        "meta_ra_of_asc_node": 42.0707,
        "meta_arg_of_pericenter": 265.2029,
        "meta_mean_anomaly": 28.2517,
        "meta_ephemeris_type": 0,
        "meta_classification_type": "U",
        "meta_norad_cat_id": 38867,
        "meta_element_set_no": 999,
        "meta_rev_at_epoch": 4819,
        "meta_bstar": 0,
        "meta_mean_motion_dot": -2.64e-06,
        "meta_mean_motion_ddot": 0,
        "tle_line1": "1 38867U 12057A   25357.82203741 -.00000264  00000+0  00000+0 0  9997",
        "tle_line2": "2 38867   0.0166  42.0707 0001073 265.2029  28.2517  1.00264604 48194"
      },
      "geometry": {
        "type": "Point",
        "coordinates": [
          156.3344979641522,
          0.029832864414118813
        ]
      }
    },
    {
      "type": "Feature",
      "properties": {
        "norad_id": 39360,
        "name": "FM-6",
        "group": "intelsat",
        "lat": 0.02255752611129644,
        "lon": 93.15828479418369,
        "alt_km": 35785.44417854221,
        "timestamp": "2025-12-24T07:45:05.866583+00:00",
        "meta_object_name": "FM-6",
        "meta_object_id": "2013-058A",
        "meta_epoch": "2025-12-23T11:38:38.460768",
        "meta_mean_motion": 1.00269364,
        "meta_eccentricity": 0.00029708,
        "meta_inclination": 0.0125,
        "meta_ra_of_asc_node": 63.3346,
        "meta_arg_of_pericenter": 113.984,
        "meta_mean_anomaly": 333.4468,
        "meta_ephemeris_type": 0,
        "meta_classification_type": "U",
        "meta_norad_cat_id": 39360,
        "meta_element_set_no": 999,
        "meta_rev_at_epoch": 4431,
        "meta_bstar": 0,
        "meta_mean_motion_dot": 4e-08,
        "meta_mean_motion_ddot": 0,
        "tle_line1": "1 39360U 13058A   25357.48516737  .00000004  00000+0  00000+0 0  9993",
        "tle_line2": "2 39360   0.0125  63.3346 0002970 113.9840 333.4468  1.00269364 44314"
      },
      "geometry": {
        "type": "Point",
        "coordinates": [
          93.15828479418369,
          0.02255752611129644
        ]
      }
    },
    {
      "type": "Feature",
      "properties": {
        "norad_id": 40271,
        "name": "INTELSAT 30 (IS-30)",
        "group": "intelsat",
        "lat": 0.034540770484902096,
        "lon": 114.31620952249058,
        "alt_km": 35780.52890356341,
        "timestamp": "2025-12-24T07:45:05.866595+00:00",
        "meta_object_name": "INTELSAT 30 (IS-30)",
        "meta_object_id": "2014-062A",
        "meta_epoch": "2025-12-23T13:22:24.176064",
        "meta_mean_motion": 1.00269419,
        "meta_eccentricity": 0.0001607,
        "meta_inclination": 0.0118,
        "meta_ra_of_asc_node": 25.2315,
        "meta_arg_of_pericenter": 65.5054,
        "meta_mean_anomaly": 107.1564,
        "meta_ephemeris_type": 0,
        "meta_classification_type": "U",
        "meta_norad_cat_id": 40271,
        "meta_element_set_no": 999,
        "meta_rev_at_epoch": 503,
        "meta_bstar": 0,
        "meta_mean_motion_dot": -1.29e-06,
        "meta_mean_motion_ddot": 0,
        "tle_line1": "1 40271U 14062A   25357.55722426 -.00000129  00000+0  00000+0 0  9993",
        "tle_line2": "2 40271   0.0118  25.2315 0001607  65.5054 107.1564  1.00269419  5037"
      },
      "geometry": {
        "type": "Point",
        "coordinates": [
          114.31620952249058,
          0.034540770484902096
        ]
      }
    },
    {
      "type": "Feature",
      "properties": {
        "norad_id": 40333,
        "name": "DIRECTV 14",
        "group": "intelsat",
        "lat": 0.04367734071061671,
        "lon": 110.14236120340395,
        "alt_km": 35785.80360877188,
        "timestamp": "2025-12-24T07:45:05.866606+00:00",
        "meta_object_name": "DIRECTV 14",
        "meta_object_id": "2014-078B",
        "meta_epoch": "2025-12-23T11:18:37.238976",
        "meta_mean_motion": 1.00271389,
        "meta_eccentricity": 3.845e-05,
        "meta_inclination": 0.0218,
        "meta_ra_of_asc_node": 6.297,
        "meta_arg_of_pericenter": 179.2975,
        "meta_mean_anomaly": 337.1009,
        "meta_ephemeris_type": 0,
        "meta_classification_type": "U",
        "meta_norad_cat_id": 40333,
        "meta_element_set_no": 999,
        "meta_rev_at_epoch": 4028,
        "meta_bstar": 0,
        "meta_mean_motion_dot": 0,
        "meta_mean_motion_ddot": 0,
        "tle_line1": "1 40333U 14078B   25357.47126434  .00000000  00000+0  00000+0 0  9994",
        "tle_line2": "2 40333   0.0218   6.2970 0000384 179.2975 337.1009  1.00271389 40283"
      },
      "geometry": {
        "type": "Point",
        "coordinates": [
          110.14236120340395,
          0.04367734071061671
        ]
      }
    },
    {
      "type": "Feature",
      "properties": {
        "norad_id": 40663,
        "name": "DIRECTV 15",
        "group": "intelsat",
        "lat": 0.04423474517161408,
        "lon": 106.4725721270506,
        "alt_km": 35786.09335707026,
        "timestamp": "2025-12-24T07:45:05.866617+00:00",
        "meta_object_name": "DIRECTV 15",
        "meta_object_id": "2015-026A",
        "meta_epoch": "2025-12-23T16:04:04.915776",
        "meta_mean_motion": 1.00267894,
        "meta_eccentricity": 5.609e-05,
        "meta_inclination": 0.0212,
        "meta_ra_of_asc_node": 18.8544,
        "meta_arg_of_pericenter": 150.3599,
        "meta_mean_anomaly": 61.3814,
        "meta_ephemeris_type": 0,
        "meta_classification_type": "U",
        "meta_norad_cat_id": 40663,
        "meta_element_set_no": 999,
        "meta_rev_at_epoch": 3870,
        "meta_bstar": 0,
        "meta_mean_motion_dot": 0,
        "meta_mean_motion_ddot": 0,
        "tle_line1": "1 40663U 15026A   25357.66950134  .00000000  00000+0  00000+0 0  9997",
        "tle_line2": "2 40663   0.0212  18.8544 0000560 150.3599  61.3814  1.00267894 38707"
      },
      "geometry": {
        "type": "Point",
        "coordinates": [
          106.4725721270506,
          0.04423474517161408
        ]
      }
    },
    {
      "type": "Feature",
      "properties": {
        "norad_id": 40664,
        "name": "SKY MEXICO-1",
        "group": "intelsat",
        "lat": 0.0293826775810035,
        "lon": 130.5913179314289,
        "alt_km": 35796.14196163184,
        "timestamp": "2025-12-24T07:45:05.866629+00:00",
        "meta_object_name": "SKY MEXICO-1",
        "meta_object_id": "2015-026B",
        "meta_epoch": "2025-12-23T21:19:04.901088",
        "meta_mean_motion": 1.0027056,
        "meta_eccentricity": 0.00024588,
        "meta_inclination": 0.009,
        "meta_ra_of_asc_node": 28.3066,
        "meta_arg_of_pericenter": 260.8975,
        "meta_mean_anomaly": 44.4735,
        "meta_ephemeris_type": 0,
        "meta_classification_type": "U",
        "meta_norad_cat_id": 40664,
        "meta_element_set_no": 999,
        "meta_rev_at_epoch": 3869,
        "meta_bstar": 0,
        "meta_mean_motion_dot": -2.13e-06,
        "meta_mean_motion_ddot": 0,
        "tle_line1": "1 40664U 15026B   25357.88825117 -.00000213  00000+0  00000+0 0  9991",
        "tle_line2": "2 40664   0.0090  28.3066 0002458 260.8975  44.4735  1.00270560 38696"
      },
      "geometry": {
        "type": "Point",
        "coordinates": [
          130.5913179314289,
          0.0293826775810035
        ]
      }
    },
    {
      "type": "Feature",
      "properties": {
        "norad_id": 40874,
        "name": "INTELSAT 34 (IS-34)",
        "group": "intelsat",
        "lat": 0.003003052257593137,
        "lon": 153.8726812485413,
        "alt_km": 35783.53214697826,
        "timestamp": "2025-12-24T07:45:05.866641+00:00",
        "meta_object_name": "INTELSAT 34 (IS-34)",
        "meta_object_id": "2015-039A",
        "meta_epoch": "2025-12-23T19:42:59.103360",
        "meta_mean_motion": 1.00270476,
        "meta_eccentricity": 7.121e-05,
        "meta_inclination": 0.0141,
        "meta_ra_of_asc_node": 314.1249,
        "meta_arg_of_pericenter": 206.2601,
        "meta_mean_anomaly": 172.4751,
        "meta_ephemeris_type": 0,
        "meta_classification_type": "U",
        "meta_norad_cat_id": 40874,
        "meta_element_set_no": 999,
        "meta_rev_at_epoch": 3786,
        "meta_bstar": 0,
        "meta_mean_motion_dot": -2.64e-06,
        "meta_mean_motion_ddot": 0,
        "tle_line1": "1 40874U 15039A   25357.82151740 -.00000264  00000+0  00000+0 0  9992",
        "tle_line2": "2 40874   0.0141 314.1249 0000712 206.2601 172.4751  1.00270476 37860"
      },
      "geometry": {
        "type": "Point",
        "coordinates": [
          153.8726812485413,
          0.003003052257593137
        ]
      }
    }
  ]
}